ORBCOMM FM24            
1 25478U 98053D   24169.54419930  .00001075  00000+0  41631-3 0  9998
2 25478  45.0071 195.1534 0002764 254.5810 105.4732 14.35841684344992
ORBCOMM FM25            
1 25479U 98053E   24169.78935621  .00001050  00000+0  40786-3 0  9998
2 25479  45.0061 192.2424 0005191 243.3137 116.7179 14.35821313345328
ORBCOMM FM26            
1 25480U 98053F   24169.53260692  .00000898  00000+0  35981-3 0  9992
2 25480  45.0056 187.7377 0007543 252.3511 107.6512 14.35242447345223
ORBCOMM FM27            
1 25481U 98053G   24169.77783930  .00001109  00000+0  42807-3 0  9995
2 25481  45.0044 192.5598 0002354 289.7310  70.3284 14.35809826345251
ORBCOMM FM28            
1 25482U 98053H   24169.40508972  .00002352  00000+0  84596-3 0  9999
2 25482  45.0052 132.6612 0005330 285.2465  74.7793 14.36236614345873
ORBCOMM FM30            
1 25980U 99065A   24169.90859688  .00001267  00000+0  48621-3 0  9997
2 25980  45.0338  11.5296 0005643 344.9633  15.1046 14.35382986282078
ORBCOMM FM31            
1 25981U 99065B   24169.87421893  .00001223  00000+0  47116-3 0  9997
2 25981  45.0247   5.3568 0002873  13.9366 346.1561 14.35377511281626
ORBCOMM FM32            
1 25982U 99065C   24169.88252579  .00001187  00000+0  46780-3 0  9997
2 25982  45.0178  19.3961 0005373  13.7847 346.3145 14.34380623282259
